stk.v.4.3 

BEGIN Ephemeris 
 
NumberOfEphemerisPoints		146 
ScenarioEpoch	    2 Jan 2020 12:49:22.811529636 
InterpolationMethod		Lagrange 
InterpolationOrder		5 
CentralBody				Earth 
CoordinateSystem			TEME 
CoordinateSystemEpoch	  2 Jan 2020 12:49:22.811529636 
DistanceUnit			Kilometers 
 
EphemerisTimePosVel 
 
       0.00000000    2499.85293479   -6708.23724412       0.04273360  0.435758768  0.172616646  7.448713138
 END Ephemeris 
